{
  "type": "FeatureCollection",
  "features": [
    {
      "type": "Feature",
      "properties": {
        "norad_id": 40118,
        "name": "GAOFEN-2",
        "group": "resource",
        "lat": -43.952015960137665,
        "lon": 62.329228287383806,
        "alt_km": 638.279849657989,
        "timestamp": "2025-12-21T07:34:34.197674+00:00",
        "meta_object_name": "GAOFEN-2",
        "meta_object_id": "2014-049A",
        "meta_epoch": "2025-12-20T22:02:43.292832",
        "meta_mean_motion": 14.80620072,
        "meta_eccentricity": 0.00087343,
        "meta_inclination": 98.038,
        "meta_ra_of_asc_node": 54.1014,
        "meta_arg_of_pericenter": 90.4018,
        "meta_mean_anomaly": 269.8195,
        "meta_ephemeris_type": 0,
        "meta_classification_type": "U",
        "meta_norad_cat_id": 40118,
        "meta_element_set_no": 999,
        "meta_rev_at_epoch": 61285,
        "meta_bstar": 2.8791663e-05,
        "meta_mean_motion_dot": 1.67e-06,
        "meta_mean_motion_ddot": 0,
        "tle_line1": "1 40118U 14049A   25354.91855663  .00000167  00000+0  28792-4 0  9999",
        "tle_line2": "2 40118  98.0380  54.1014 0008734  90.4018 269.8195 14.80620072612855"
      },
      "geometry": {
        "type": "Point",
        "coordinates": [
          62.329228287383806,
          -43.952015960137665
        ]
      }
    },
    {
      "type": "Feature",
      "properties": {
        "norad_id": 40143,
        "name": "YAOGAN-21",
        "group": "resource",
        "lat": 12.386083290457188,
        "lon": -140.1589965176509,
        "alt_km": 501.3986875234741,
        "timestamp": "2025-12-21T07:34:34.197684+00:00",
        "meta_object_name": "YAOGAN-21",
        "meta_object_id": "2014-053A",
        "meta_epoch": "2025-12-20T22:57:49.622976",
        "meta_mean_motion": 15.23749439,
        "meta_eccentricity": 0.00089812,
        "meta_inclination": 97.1747,
        "meta_ra_of_asc_node": 37.9125,
        "meta_arg_of_pericenter": 15.4621,
        "meta_mean_anomaly": 344.689,
        "meta_ephemeris_type": 0,
        "meta_classification_type": "U",
        "meta_norad_cat_id": 40143,
        "meta_element_set_no": 999,
        "meta_rev_at_epoch": 62779,
        "meta_bstar": 8.1887467e-05,
        "meta_mean_motion_dot": 1.903e-05,
        "meta_mean_motion_ddot": 0,
        "tle_line1": "1 40143U 14053A   25354.95682434  .00001903  00000+0  81887-4 0  9993",
        "tle_line2": "2 40143  97.1747  37.9125 0008981  15.4621 344.6890 15.23749439627793"
      },
      "geometry": {
        "type": "Point",
        "coordinates": [
          -140.1589965176509,
          12.386083290457188
        ]
      }
    },
    {
      "type": "Feature",
      "properties": {
        "norad_id": 40275,
        "name": "YAOGAN-22",
        "group": "resource",
        "lat": 63.3811605522136,
        "lon": 116.59821371807564,
        "alt_km": 1199.911534171365,
        "timestamp": "2025-12-21T07:34:34.197693+00:00",
        "meta_object_name": "YAOGAN-22",
        "meta_object_id": "2014-063A",
        "meta_epoch": "2025-12-20T16:38:31.747200",
        "meta_mean_motion": 13.15522924,
        "meta_eccentricity": 0.0006025,
        "meta_inclination": 100.7427,
        "meta_ra_of_asc_node": 138.2254,
        "meta_arg_of_pericenter": 229.0888,
        "meta_mean_anomaly": 130.9702,
        "meta_ephemeris_type": 0,
        "meta_classification_type": "U",
        "meta_norad_cat_id": 40275,
        "meta_element_set_no": 999,
        "meta_rev_at_epoch": 53634,
        "meta_bstar": 1.3459364e-05,
        "meta_mean_motion_dot": -4.2e-07,
        "meta_mean_motion_ddot": 0,
        "tle_line1": "1 40275U 14063A   25354.69342300 -.00000042  00000+0  13459-4 0  9990",
        "tle_line2": "2 40275 100.7427 138.2254 0006025 229.0888 130.9702 13.15522924536343"
      },
      "geometry": {
        "type": "Point",
        "coordinates": [
          116.59821371807564,
          63.3811605522136
        ]
      }
    },
    {
      "type": "Feature",
      "properties": {
        "norad_id": 40298,
        "name": "ASNARO",
        "group": "resource",
        "lat": 82.30303846937088,
        "lon": -2.090662935263495,
        "alt_km": 495.5811565976919,
        "timestamp": "2025-12-21T07:34:34.197704+00:00",
        "meta_object_name": "ASNARO",
        "meta_object_id": "2014-070A",
        "meta_epoch": "2025-12-20T21:42:34.775424",
        "meta_mean_motion": 15.19644581,
        "meta_eccentricity": 0.00057031,
        "meta_inclination": 97.3649,
        "meta_ra_of_asc_node": 70.652,
        "meta_arg_of_pericenter": 99.8359,
        "meta_mean_anomaly": 260.352,
        "meta_ephemeris_type": 0,
        "meta_classification_type": "U",
        "meta_norad_cat_id": 40298,
        "meta_element_set_no": 999,
        "meta_rev_at_epoch": 61693,
        "meta_bstar": 0.00024576115,
        "meta_mean_motion_dot": 5.174e-05,
        "meta_mean_motion_ddot": 0,
        "tle_line1": "1 40298U 14070A   25354.90456916  .00005174  00000+0  24576-3 0  9997",
        "tle_line2": "2 40298  97.3649  70.6520 0005703  99.8359 260.3520 15.19644581616938"
      },
      "geometry": {
        "type": "Point",
        "coordinates": [
          -2.090662935263495,
          82.30303846937088
        ]
      }
    },
    {
      "type": "Feature",
      "properties": {
        "norad_id": 40310,
        "name": "YAOGAN-24",
        "group": "resource",
        "lat": 16.722151023826445,
        "lon": -51.086123390676406,
        "alt_km": 635.248470426337,
        "timestamp": "2025-12-21T07:34:34.197713+00:00",
        "meta_object_name": "YAOGAN-24",
        "meta_object_id": "2014-072A",
        "meta_epoch": "2025-12-20T22:42:27.319392",
        "meta_mean_motion": 14.76193906,
        "meta_eccentricity": 0.00151084,
        "meta_inclination": 98.1225,
        "meta_ra_of_asc_node": 126.0833,
        "meta_arg_of_pericenter": 113.3535,
        "meta_mean_anomaly": 246.9265,
        "meta_ephemeris_type": 0,
        "meta_classification_type": "U",
        "meta_norad_cat_id": 40310,
        "meta_element_set_no": 999,
        "meta_rev_at_epoch": 59742,
        "meta_bstar": 0.00015689102,
        "meta_mean_motion_dot": 1.034e-05,
        "meta_mean_motion_ddot": 0,
        "tle_line1": "1 40310U 14072A   25354.94614953  .00001034  00000+0  15689-3 0  9991",
        "tle_line2": "2 40310  98.1225 126.0833 0015108 113.3535 246.9265 14.76193906597423"
      },
      "geometry": {
        "type": "Point",
        "coordinates": [
          -51.086123390676406,
          16.722151023826445
        ]
      }
    },
    {
      "type": "Feature",
      "properties": {
        "norad_id": 40336,
        "name": "CBERS 4",
        "group": "resource",
        "lat": 81.65943062181351,
        "lon": -34.950755411253034,
        "alt_km": 764.6075420923407,
        "timestamp": "2025-12-21T07:34:34.197722+00:00",
        "meta_object_name": "CBERS 4",
        "meta_object_id": "2014-079A",
        "meta_epoch": "2025-12-20T22:47:44.723616",
        "meta_mean_motion": 14.35519563,
        "meta_eccentricity": 0.00018186,
        "meta_inclination": 98.3302,
        "meta_ra_of_asc_node": 52.6858,
        "meta_arg_of_pericenter": 103.5089,
        "meta_mean_anomaly": 256.63,
        "meta_ephemeris_type": 0,
        "meta_classification_type": "U",
        "meta_norad_cat_id": 40336,
        "meta_element_set_no": 999,
        "meta_rev_at_epoch": 57838,
        "meta_bstar": -3.8480827e-05,
        "meta_mean_motion_dot": -1.53e-06,
        "meta_mean_motion_ddot": 0,
        "tle_line1": "1 40336U 14079A   25354.94982319 -.00000153  00000+0 -38481-4 0  9999",
        "tle_line2": "2 40336  98.3302  52.6858 0001818 103.5089 256.6300 14.35519563578386"
      },
      "geometry": {
        "type": "Point",
        "coordinates": [
          -34.950755411253034,
          81.65943062181351
        ]
      }
    },
    {
      "type": "Feature",
      "properties": {
        "norad_id": 40362,
        "name": "YAOGAN-26",
        "group": "resource",
        "lat": 6.7271610627615255,
        "lon": -5.153427984764482,
        "alt_km": 446.17938253749617,
        "timestamp": "2025-12-21T07:34:34.197732+00:00",
        "meta_object_name": "YAOGAN-26",
        "meta_object_id": "2014-088A",
        "meta_epoch": "2025-12-20T22:11:14.740224",
        "meta_mean_motion": 15.39562672,
        "meta_eccentricity": 0.00049879,
        "meta_inclination": 97.0637,
        "meta_ra_of_asc_node": 355.3072,
        "meta_arg_of_pericenter": 5.8502,
        "meta_mean_anomaly": 354.2802,
        "meta_ephemeris_type": 0,
        "meta_classification_type": "U",
        "meta_norad_cat_id": 40362,
        "meta_element_set_no": 999,
        "meta_rev_at_epoch": 61020,
        "meta_bstar": 0.00028514141,
        "meta_mean_motion_dot": 0.00011143,
        "meta_mean_motion_ddot": 0,
        "tle_line1": "1 40362U 14088A   25354.92447616  .00011143  00000+0  28514-3 0  9996",
        "tle_line2": "2 40362  97.0637 355.3072 0004987   5.8502 354.2802 15.39562672610201"
      },
      "geometry": {
        "type": "Point",
        "coordinates": [
          -5.153427984764482,
          6.7271610627615255
        ]
      }
    }
  ]
}